[{"OBJECT_NAME":"STARLINK-5924","OBJECT_ID":"2023-037BB","EPOCH":"2026-03-09T21:16:56.793216","MEAN_MOTION":14.98330037,"ECCENTRICITY":0.00029882,"INCLINATION":69.9983,"RA_OF_ASC_NODE":263.9199,"ARG_OF_PERICENTER":270.0052,"MEAN_ANOMALY":90.0765,"EPHEMERIS_TYPE":0,"CLASSIFICATION_TYPE":"U","NORAD_CAT_ID":55963,"ELEMENT_SET_NO":999,"REV_AT_EPOCH":16450,"BSTAR":4.580269e-6,"MEAN_MOTION_DOT":-3.8e-7,"MEAN_MOTION_DDOT":0},{"OBJECT_NAME":"SHIYAN-24C 01","OBJECT_ID":"2023-206A","EPOCH":"2026-03-09T21:26:37.340736","MEAN_MOTION":14.97903598,"ECCENTRICITY":0.0003675,"INCLINATION":97.3976,"RA_OF_ASC_NODE":41.7846,"ARG_OF_PERICENTER":132.3262,"MEAN_ANOMALY":227.8273,"EPHEMERIS_TYPE":0,"CLASSIFICATION_TYPE":"U","NORAD_CAT_ID":58650,"ELEMENT_SET_NO":999,"REV_AT_EPOCH":12044,"BSTAR":0.00018089,"MEAN_MOTION_DOT":2.076e-5,"MEAN_MOTION_DDOT":0}]
